{"spkid": "54471048", "covariance": {"labels": ["e", "q", "tp", "node", "peri", "i"], "elements": [{"label": "e", "name": "e", "sigma": 6.45213710100918e-08, "units": null, "title": "eccentricity", "value": ".5725041165178718"}, {"sigma": 1.41249800283704e-07, "name": "q", "units": "au", "value": ".8953203876601095", "title": "perihelion distance", "label": "q"}, {"label": "tp", "name": "tp", "sigma": 1.9256125821218e-05, "value": "2459561.488208839759", "title": "time of perihelion passage", "units": "TDB"}, {"label": "node", "title": "longitude of the ascending node", "value": "316.4507132730529", "units": "deg", "name": "om", "sigma": 6.85895540807348e-05}, {"label": "peri", "units": "deg", "value": "150.2621179110705", "title": "argument of perihelion", "sigma": 6.91595575100781e-05, "name": "w"}, {"title": "inclination", "value": "11.77106557380401", "units": "deg", "sigma": 8.49665100967869e-06, "name": "i", "label": "i"}], "data": [["4.163007317021918E-15", "-9.097836410809056E-15", "-7.339419059110068E-13", "-1.54348849280829E-13", "-2.855043594666906E-13", "-2.542550244777951E-13"], ["-9.097836410809056E-15", "1.995150608018626E-14", "1.612485196330371E-12", "3.52726131276513E-13", "6.573664694848983E-13", "5.701403107971694E-13"], ["-7.339419059110068E-13", "1.612485196330371E-12", "3.707983816425789E-10", "-6.088794837641999E-11", "3.297653710707203E-10", "5.580898533803362E-11"], ["-1.54348849280829E-13", "3.52726131276513E-13", "-6.088794837641999E-11", "4.704526928994042E-9", "-4.612648616887586E-9", "2.957043149097943E-10"], ["-2.855043594666906E-13", "6.573664694848983E-13", "3.297653710707203E-10", "-4.612648616887586E-9", "4.783044394989795E-9", "-2.342829511092299E-10"], ["-2.542550244777951E-13", "5.701403107971694E-13", "5.580898533803362E-11", "2.957043149097943E-10", "-2.342829511092299E-10", "7.219307838027387E-11"]], "epoch": "2459901.5"}, "elements": [{"label": "e", "sigma": "6.4623E-8", "name": "e", "units": null, "title": "eccentricity", "value": ".5727191233683754"}, {"value": "2.094084191943838", "title": "semi-major axis", "units": "au", "name": "a", "sigma": "2.3735E-8", "label": "a"}, {"name": "q", "sigma": "1.4134E-7", "units": "au", "title": "perihelion distance", "value": ".8947621292741905", "label": "q"}, {"label": "i", "units": "deg", "value": "11.77723702753401", "title": "inclination; angle with respect to x-y ecliptic plane", "name": "i", "sigma": "8.4969E-6"}, {"label": "node", "value": "316.4138861556696", "title": "longitude of the ascending node", "units": "deg", "sigma": "6.8555E-5", "name": "om"}, {"title": "argument of perihelion", "value": "150.3095899870227", "units": "deg", "name": "w", "sigma": "6.9123E-5", "label": "peri"}, {"units": "deg", "value": "173.0952141741634", "title": "mean anomaly", "sigma": "1.2844E-5", "name": "ma", "label": "M"}, {"value": "2460668.303279420652", "title": "time of perihelion passage", "units": "TDB", "sigma": "3.1675E-5", "name": "tp", "label": "tp"}, {"label": "period", "name": "per", "sigma": "1.8818E-5", "title": "sidereal orbital period", "value": "1106.852204566396", "units": "d"}, {"name": "n", "sigma": "5.5298E-9", "title": "mean motion", "value": ".3252466756761155", "units": "deg/d", "label": "n"}, {"value": "3.293406254613486", "title": "aphelion distance", "units": "au", "name": "ad", "sigma": "3.7329E-8", "label": "Q"}], "epoch": "2461200.5"}